,station_id,name,physical_configuration,lat,lon,altitude,address,post_code,capacity,rental_methods,groups,obcn,nearby_distance
0,2,(GDL-001) C. Epigmenio Glez./ Av. 16 de Sept.,REGULAR,20.666378,-103.34882,0.0,(GDL-001) C. Epigmenio González / Av. 16 de Septiembre *,44180,15,"['KEY', 'CREDITCARD', 'TRANSITCARD', 'PHONE']",[],GDL-001,500.0
1,3,(GDL-002) C. Colonias  / Av.  Niños héroes,REGULAR,20.667228,-103.366,1.0,(GDL-002) C. Colonias / Av.  Niños Héroes,44160,15,"['KEY', 'CREDITCARD', 'TRANSITCARD', 'PHONE']",[],GDL-002,500.0
2,4,(GDL-003) C. Vidrio / Av. Chapultepec,REGULAR,20.66769,-103.368252,1.0,(GDL-003) C. Vidrio / Av. Chapultepec,44160,19,"['KEY', 'CREDITCARD', 'TRANSITCARD', 'PHONE']",[],GDL-003,500.0
3,5,(GDL-004) C. Ghilardi /C. Miraflores,REGULAR,20.69175,-103.36255,0.0,(GDL-004) C. Ghilardi / C. Miraflores *,44600,11,"['KEY', 'CREDITCARD', 'TRANSITCARD', 'PHONE']",[],GDL-004,500.0
4,6,(GDL-005) C. San Diego /Calzada Independencia,REGULAR,20.681151,-103.338863,0.0,(GDL-005) C. San Diego / Calz. Independencia *,44280,11,"['KEY', 'CREDITCARD', 'TRANSITCARD', 'PHONE']",[],GDL-005,500.0
5,8,(GDL-006) C. Venustiano Carranza /C. Reforma,REGULAR,20.6807519,-103.3443801,0.0,(GDL-006) C. Venustiano Carranza / C. Reforma *,44280,11,"['KEY', 'CREDITCARD', 'TRANSITCARD', 'PHONE']",[],GDL-006,500.0
6,9,(GDL-007) C. Epigmenio Glez./Av. Cristobal C.,REGULAR,20.666771,-103.350562,1.0,(GDL-007) C. Epigmenio González / Av. Cristóbal Colón,44180,15,"['KEY', 'CREDITCARD', 'TRANSITCARD', 'PHONE']",[],GDL-007,500.0
7,10,(GDL-008) C. J. Angulo / C. González Ortega,REGULAR,20.681871,-103.350396,0.0,(GDL-008) C. Joaquín Angulo / C. González Ortega *,44100,15,"['KEY', 'CREDITCARD', 'TRANSITCARD', 'PHONE']",[],GDL-008,500.0
8,11,(GDL-009) Calz. Federalismo/ C. J. Angulo,REGULAR,20.681984,-103.353835,1.0,(GDL-009) Calz. Federalismo / C. Joaquín Angulo,44200,23,"['KEY', 'CREDITCARD', 'TRANSITCARD', 'PHONE']",[],GDL-009,500.0
9,12,(GDL-010) C. Cruz verde / C. Joaquin Angulo,REGULAR,20.681786,-103.357267,0.0,(GDL-010) C. Cruz Verde / C. Joaquín Angulo *,44200,15,"['KEY', 'CREDITCARD', 'TRANSITCARD', 'PHONE']",[],GDL-010,500.0
10,13,(GDL-011) C. Garibaldi / C. Frías,REGULAR,20.681081,-103.360099,0.0,(GDL-011) C. Garibaldi / C. Frías *,44200,11,"['KEY', 'CREDITCARD', 'TRANSITCARD', 'PHONE']",[],GDL-011,500.0
11,14,(GDL-012) C. Joaquín Angulo / C. Ghilardi,REGULAR,20.681989,-103.36292,0.0,(GDL-012) C. Joaquín Angulo / C. Ghilardi*,44200,11,"['KEY', 'CREDITCARD', 'TRANSITCARD', 'PHONE']",[],GDL-012,500.0
12,15,(GDL-013) C. Vidrio  / C. Marsella,REGULAR,20.667623,-103.370499,1.0,(GDL-013) C. Vidrio  / C. Marsella,44140,11,"['KEY', 'CREDITCARD', 'TRANSITCARD', 'PHONE']",[],GDL-013,500.0
13,16,(GDL-014) C. J. Angulo/C José Clemente Orozco,REGULAR,20.682059,-103.365969,0.0,(GDL-014) C. Joaquín Angulo / C. J. Clemente Orozco *,44600,19,"['KEY', 'CREDITCARD', 'TRANSITCARD', 'PHONE']",[],GDL-014,500.0
14,17,(GDL-015) C. Herrera y Cairo /C. Pedro Buzeta,REGULAR,20.683191,-103.369349,0.0,(GDL-015) C. Herrera y Cairo / C. Pedro Buzeta *,44600,15,"['KEY', 'CREDITCARD', 'TRANSITCARD', 'PHONE']",[],GDL-015,500.0
15,18,(GDL-016) C. Bernardo de Balbuena/C J. Angulo,REGULAR,20.682007,-103.372642,0.0,(GDL-016) C. Bernardo de Balbuena / C. Joaquín Angulo*,44600,15,"['KEY', 'CREDITCARD', 'TRANSITCARD', 'PHONE']",[],GDL-016,500.0
16,19,(GDL-017) Av. México /C. Bernardo de Balbuena,REGULAR,20.679086,-103.372841,1.0,(GDL-017) Av. México / C. Bernardo de Balbuena,44600,15,"['KEY', 'CREDITCARD', 'TRANSITCARD', 'PHONE']",[],GDL-017,500.0
17,20,(GDL-018) Av. México / C. Manuel M. Diéguez,REGULAR,20.679296,-103.370658,1.0,(GDL-018) Av. México / C. Manuel M. Diéguez,44600,11,"['KEY', 'CREDITCARD', 'TRANSITCARD', 'PHONE']",[],GDL-018,500.0
18,21,(GDL-019)  C. Juan Manuel / C. Andrés Terán,REGULAR,20.678835,-103.368045,1.0,(GDL-019) C. Juan Manuel / C. Andrés Terán,44600,23,"['KEY', 'CREDITCARD', 'TRANSITCARD', 'PHONE']",[],GDL-019,500.0
19,23,(GDL-021) C. Nicolás Romero / C. Reforma,REGULAR,20.67966,-103.362224,1.0,(GDL-021) C. Nicolás Romero / C. Reforma,44100,15,"['KEY', 'CREDITCARD', 'TRANSITCARD', 'PHONE']",[],GDL-021,500.0
20,24,(GDL-022) C. San Felipe /C Enrique D. de León,REGULAR,20.679389,-103.35913,0.0,(GDL-022) C. San Felipe / Av. Enrique Díaz de León *,44100,15,"['KEY', 'CREDITCARD', 'TRANSITCARD', 'PHONE']",[],GDL-022,500.0
21,25,(GDL-023) C. Jesús / C. San Felipe,REGULAR,20.679309,-103.356281,0.0,(GDL-023) C. Jesús / C. San Felipe *,44100,15,"['KEY', 'CREDITCARD', 'TRANSITCARD', 'PHONE']",[],GDL-023,500.0
22,26,(GDL-024) Av.  Federalismo / C. Juan Manuel,REGULAR,20.678777,-103.354035,1.0,(GDL-024) Calz. Federalismo / C. Juan Manuel,44100,15,"['KEY', 'CREDITCARD', 'TRANSITCARD', 'PHONE']",[],GDL-024,500.0
23,27,(GDL-025) C. Reforma / C. González Ortega,REGULAR,20.680227,-103.350146,0.0,(GDL-025) C. Reforma / C. González Ortega *,44100,15,"['KEY', 'CREDITCARD', 'TRANSITCARD', 'PHONE']",[],GDL-025,500.0
24,28,(GDL-026) C. Pedro Loza / C. Reforma,REGULAR,20.680478,-103.348377,1.0,(GDL-026) C. Pedro Loza / C. Reforma,44100,15,"['KEY', 'CREDITCARD', 'TRANSITCARD', 'PHONE']",[],GDL-026,500.0
25,29,(GDL-027) C. Belén / C. San Felipe,REGULAR,20.679861,-103.345198,0.0,(GDL-027) C. Belén / C. San Felipe *,44100,11,"['KEY', 'CREDITCARD', 'TRANSITCARD', 'PHONE']",[],GDL-027,500.0
26,30,(GDL-028) C. Gregorio Dávila /C. Manuel Acuña,REGULAR,20.684187,-103.36113,0.0,(GDL-028) C. Gregorio Dávila / C. Manuel Acuña *,44200,11,"['KEY', 'CREDITCARD', 'TRANSITCARD', 'PHONE']",[],GDL-028,500.0
27,31,(GDL-029) Calz. Indep. /C. Juan Manuel,REGULAR,20.679505,-103.339753,1.0,(GDL-029) Calz. Independencia / C. Juan Manuel,44100,15,"['KEY', 'CREDITCARD', 'TRANSITCARD', 'PHONE']",[],GDL-029,500.0
28,32,(GDL-030) C. Pedro Moreno/ C. Progreso,REGULAR,20.675461,-103.367501,1.0,(GDL-030) C. Pedro Moreno / C. Progreso,44160,19,"['KEY', 'CREDITCARD', 'TRANSITCARD', 'PHONE']",[],GDL-030,500.0
29,33,(GDL-031) C. Hospital / C. Andrés Terán,REGULAR,20.685652,-103.368215,0.0,(GDL-031) C. Hospital / C. Andrés Terán *,44600,11,"['KEY', 'CREDITCARD', 'TRANSITCARD', 'PHONE']",[],GDL-031,500.0
30,34,(GDL-032) C. Degollado / Av. Hidalgo,REGULAR,20.6772627,-103.344908,1.0,(GDL-032) C. Degollado / Av. Hidalgo,44100,15,"['KEY', 'CREDITCARD', 'TRANSITCARD', 'PHONE']",[],GDL-032,500.0
31,35,(GDL-033) Av. Hidalgo / C. Pedro Loza,REGULAR,20.677419,-103.347983,0.0,(GDL-033) Av. Hidalgo / C. Pedro Loza,44100,15,"['KEY', 'CREDITCARD', 'TRANSITCARD', 'PHONE']",[],GDL-033,500.0
32,36,(GDL-034) C. Morelos / C. Donato Guerra,REGULAR,20.676461,-103.350244,0.0,(GDL-034) C. Morelos / C. Donato Guerra,44100,15,"['KEY', 'CREDITCARD', 'TRANSITCARD', 'PHONE']",[],GDL-034,500.0
33,37,(GDL-035) C. Mezquitán / Av. Hidalgo,REGULAR,20.677315,-103.3534145,1.0,(GDL-035) C. Mezquitán / Av. Hidalgo,44100,11,"['KEY', 'CREDITCARD', 'TRANSITCARD', 'PHONE']",[],GDL-035,500.0
34,38,(GDL-036) C. Marcos Castellanos/ C. Morelos,REGULAR,20.676078,-103.356458,1.0,(GDL-036) C. Marcos Castellanos / C. Morelos,44160,23,"['KEY', 'CREDITCARD', 'TRANSITCARD', 'PHONE']",[],GDL-036,500.0
35,39,(GDL-037) C.Juan N. Cumplido /C. Independenci,REGULAR,20.678034,-103.358466,1.0,(GDL-037) C. Juan N. Cumplido / C. Independencia,44100,15,"['KEY', 'CREDITCARD', 'TRANSITCARD', 'PHONE']",[],GDL-037,500.0
36,40,(GDL-038) C. Nicolás Romero / Av. Hidalgo,REGULAR,20.676656,-103.362331,1.0,(GDL-038) C. Nicolás Romero / Av. Hidalgo,44100,15,"['KEY', 'CREDITCARD', 'TRANSITCARD', 'PHONE']",[],GDL-038,500.0
37,41,(GDL-039) C. General Coronado / Av. Hidalgo,REGULAR,20.677108,-103.365088,1.0,(GDL-039) C. General Coronado / Av. Hidalgo,44100,15,"['KEY', 'CREDITCARD', 'TRANSITCARD', 'PHONE']",[],GDL-039,500.0
38,42,(GDL-040) C. Morelos / C. Progreso,REGULAR,20.676067,-103.367049,1.0,(GDL-040) C. Morelos / C. Progreso,44600,19,"['KEY', 'CREDITCARD', 'TRANSITCARD', 'PHONE']",[],GDL-040,500.0
39,43,(GDL-041) C. Manuel M. Diéguez / Av. Hidalgo,REGULAR,20.67671,-103.37066,1.0,(GDL-041) C. Manuel M. Diéguez / Av. Hidalgo,44600,15,"['KEY', 'CREDITCARD', 'TRANSITCARD', 'PHONE']",[],GDL-041,500.0
40,44,(GDL-042) C. Bernardo de Balbuena /Av Hidalgo,REGULAR,20.676628,-103.372687,0.0,(GDL-042) C. Bernardo de Balbuena / Av. Hidalgo *,44600,15,"['KEY', 'CREDITCARD', 'TRANSITCARD', 'PHONE']",[],GDL-042,500.0
41,45,(GDL-043) C. Simón Bolivar / C. López Cotilla,REGULAR,20.673756,-103.372613,1.0,(GDL-043) C. Simón Bolivar / C. López Cotilla,44160,11,"['KEY', 'CREDITCARD', 'TRANSITCARD', 'PHONE']",[],GDL-043,500.0
42,46,(GDL-044) C. Gral. San Martín /Av.  Vallarta,REGULAR,20.674636,-103.371639,1.0,(GDL-044) C. Gral. San Martin /Av. Vallarta,44160,19,"['KEY', 'CREDITCARD', 'TRANSITCARD', 'PHONE']",[],GDL-044,500.0
43,47,(GDL-045) C. Pedro Moreno / C. Marsella,REGULAR,20.675444,-103.370147,1.0,(GDL-045) C. Pedro Moreno / C. Marsella,44160,19,"['KEY', 'CREDITCARD', 'TRANSITCARD', 'PHONE']",[],GDL-045,500.0
44,48,(GDL-046) C. Emerson / Av. Vallarta,REGULAR,20.675014,-103.365025,1.0,(GDL-046) C. Emerson / Av. Vallarta,44160,11,"['KEY', 'CREDITCARD', 'TRANSITCARD', 'PHONE']",[],GDL-046,500.0
45,49,(GDL-047) C. Robles Gil / Av. Vallarta,REGULAR,20.674931,-103.362351,1.0,(GDL-047) C. Robles Gil / Av. Vallarta,44160,15,"['KEY', 'CREDITCARD', 'TRANSITCARD', 'PHONE']",[],GDL-047,500.0
46,50,(GDL-048) C. Constancio Hernández/ Av. Juaréz,REGULAR,20.674721,-103.358548,1.0,(GDL-048) C. Constancio Hernández A. / Av. Juárez,44160,23,"['KEY', 'CREDITCARD', 'TRANSITCARD', 'PHONE']",[],GDL-048,500.0
47,51,(GDL-049) Lopez Cotilla/ Marcos Castellanos,REGULAR,20.6740865,-103.3563196,1.0,(GDL-049) C. López Cotilla/ C. Marcos Castellanos,44100,33,"['KEY', 'CREDITCARD', 'TRANSITCARD', 'PHONE']",[],GDL-049,500.0
48,52,(GDL-050) C. Pedro Moreno / Calz. Federalismo,REGULAR,20.675746,-103.354579,1.0,(GDL-050) C. Pedro Moreno / Calz. Federalismo,44100,23,"['KEY', 'CREDITCARD', 'TRANSITCARD', 'PHONE']",[],GDL-050,500.0
49,53,(GDL-051) C. 8 de Julio / Av. Juárez,REGULAR,20.674559,-103.352663,1.0,(GDL-051) C. 8 de Julio / Av. Juárez,44100,15,"['KEY', 'CREDITCARD', 'TRANSITCARD', 'PHONE']",[],GDL-051,500.0
50,54,(GDL-052) Av. Juárez / Av. 16 de Septiembre,REGULAR,20.675244,-103.347889,1.0,(GDL-052) Av. Juárez / Av. 16 de Septiembre,44100,23,"['KEY', 'CREDITCARD', 'TRANSITCARD', 'PHONE']",[],GDL-052,500.0
51,55,(GDL-053) C. Maestranza / Av. Juárez,REGULAR,20.675401,-103.345665,1.0,(GDL-053) C. Maestranza / Av. Juárez,44100,15,"['KEY', 'CREDITCARD', 'TRANSITCARD', 'PHONE']",[],GDL-053,500.0
52,56,(GDL-054) Av. Juárez / Calz. Independencia,REGULAR,20.675421,-103.342049,1.0,(GDL-054) Av. Juárez / Calz. Independencia,44100,27,"['KEY', 'CREDITCARD', 'TRANSITCARD', 'PHONE']",[],GDL-054,500.0
53,57,(GDL-055) C. Degollado /C.Prisciliano Sánchez,REGULAR,20.672696,-103.345366,1.0,(GDL-055) C. Degollado / C.Prisciliano Sánchez,44100,15,"['KEY', 'CREDITCARD', 'TRANSITCARD', 'PHONE']",[],GDL-055,500.0
54,58,(GDL-056) Av. 16 de Sept. / C. Miguel Blanco,REGULAR,20.671971,-103.347422,1.0,(GDL-056) Av. 16 de Septiembre / C. Miguel Blanco,44100,19,"['KEY', 'CREDITCARD', 'TRANSITCARD', 'PHONE']",[],GDL-056,500.0
55,59,(GDL-057) C. Ocampo / C. Prisciliano Sánchez,REGULAR,20.672516,-103.349573,1.0,(GDL-057) C. Ocampo / C. Prisciliano Sánchez,44100,11,"['KEY', 'CREDITCARD', 'TRANSITCARD', 'PHONE']",[],GDL-057,500.0
56,60,(GDL-058) C. Pavo / C. Prisciliano Sánchez,REGULAR,20.672641,-103.353542,0.0,(GDL-058) C. Pavo / C. Prisciliano Sánchez*,44100,11,"['KEY', 'CREDITCARD', 'TRANSITCARD', 'PHONE']",[],GDL-058,500.0
57,61,(GDL-059) C. Miguel Blanco / C. Penitenciaria,REGULAR,20.672231,-103.355508,0.0,(GDL-059) C. Miguel Blanco / C. Penitenciaria*,44160,15,"['KEY', 'CREDITCARD', 'TRANSITCARD', 'PHONE']",[],GDL-059,500.0
58,62,(GDL-060) C. Madero/ C. Camarena,REGULAR,20.6734,-103.357684,1.0,(GDL-060) C. Madero/ C. Camarena,44160,23,"['KEY', 'CREDITCARD', 'TRANSITCARD', 'PHONE']",[],GDL-060,500.0
59,63,(GDL-061) C. Libertad /  C. Argentina,REGULAR,20.671778,-103.361274,1.0,(GDL-061) C. Libertad /  C. Argentina,44160,19,"['KEY', 'CREDITCARD', 'TRANSITCARD', 'PHONE']",[],GDL-061,500.0
60,64,(GDL-062) C. Libertad / C. Moscú,REGULAR,20.673072,-103.365055,1.0,(GDL-062) C. Libertad / C. Moscú,44160,15,"['KEY', 'CREDITCARD', 'TRANSITCARD', 'PHONE']",[],GDL-062,500.0
61,65,(GDL-063) C. Colonias  / C. López Cotilla,REGULAR,20.674132,-103.366139,1.0,(GDL-063) C. Colonias  / C. López Cotilla,44160,27,"['KEY', 'CREDITCARD', 'TRANSITCARD', 'PHONE']",[],GDL-063,500.0
62,66,(GDL-064) C. Marsella / C. López Cotilla,REGULAR,20.673321,-103.370571,1.0,(GDL-064) C. Marsella / C. López Cotilla,44160,19,"['KEY', 'CREDITCARD', 'TRANSITCARD', 'PHONE']",[],GDL-064,500.0
63,67,(GDL-065) C. Simón Bolivar / Av. La Paz,REGULAR,20.6722064,-103.372588,1.0,(GDL-065) C. Simón Bolivar / Av. La Paz,44160,19,"['KEY', 'CREDITCARD', 'TRANSITCARD', 'PHONE']",[],GDL-065,500.0
64,68,(GDL-066) C Lerdo de Tejada/C Gral. Sn Martín,REGULAR,20.671364,-103.371786,1.0,(GDL-066) C. Lerdo de Tejada / C. Gral. San Martin,44160,15,"['KEY', 'CREDITCARD', 'TRANSITCARD', 'PHONE']",[],GDL-066,500.0
65,69,(GDL-067) Calzada Federalismo / C. Vidrio,REGULAR,20.6668825,-103.3555917,0.0,(GDL-067) Calz. Federalismo / C. Vidrio *,44160,19,"['KEY', 'CREDITCARD', 'TRANSITCARD', 'PHONE']",[],GDL-067,500.0
66,70,(GDL-068) C. Guadalupe Zuno / Av. Chapultepec,REGULAR,20.670512,-103.368306,1.0,(GDL-068) C. Guadalupe Zuno / Av. Chapultepec,44160,19,"['KEY', 'CREDITCARD', 'TRANSITCARD', 'PHONE']",[],GDL-068,500.0
67,71,(GDL-069) C. Colonias / C. Guadalupe Zuno,REGULAR,20.670468,-103.366071,1.0,(GDL-069) C. Colonias / C. Guadalupe Zuno,44160,15,"['KEY', 'CREDITCARD', 'TRANSITCARD', 'PHONE']",[],GDL-069,500.0
68,72,(GDL-070) Av. La  Paz / C. Juan de Ojeda,REGULAR,20.671455,-103.363633,1.0,(GDL-070) Av. La  Paz / C. Juan de Ojeda,44160,11,"['KEY', 'CREDITCARD', 'TRANSITCARD', 'PHONE']",[],GDL-070,500.0
69,73,(GDL-071) Av. La Paz /Av.Enrique Díaz de León,REGULAR,20.670362,-103.359537,1.0,(GDL-071) Av. La Paz / Av. Enrique Díaz de León,44160,15,"['KEY', 'CREDITCARD', 'TRANSITCARD', 'PHONE']",[],GDL-071,500.0
70,74,(GDL-072) Av. La Paz / C. Camarena,REGULAR,20.670560000000002,-103.357589,1.0,(GDL-072) Av. La Paz / C. Camarena,44160,15,"['KEY', 'CREDITCARD', 'TRANSITCARD', 'PHONE']",[],GDL-072,500.0
71,75,(GDL-073) Av. La Paz / Av. Federalismo,REGULAR,20.669955,-103.355032,1.0,(GDL-073) Av. La Paz / Calz. Federalismo,44160,19,"['KEY', 'CREDITCARD', 'TRANSITCARD', 'PHONE']",[],GDL-073,500.0
72,76,(GDL-074) C. Enrique González / C. Libertad,REGULAR,20.67131,-103.351651,1.0,(GDL-074) C. E. González Martínez / C. Libertad,44100,11,"['KEY', 'CREDITCARD', 'TRANSITCARD', 'PHONE']",[],GDL-074,500.0
73,77,(GDL-075) C. Pedro Rioseco /C. Nueva Galicia,REGULAR,20.669628,-103.348768,1.0,(GDL-075) C. Pedro Rioseco / C. Nueva Galicia,44100,11,"['KEY', 'CREDITCARD', 'TRANSITCARD', 'PHONE']",[],GDL-075,500.0
74,78,(GDL-076) C. Ramón Corona / C. Libertad,REGULAR,20.670243,-103.346195,1.0,(GDL-076) C. Ramón Corona / C. Libertad,44100,15,"['KEY', 'CREDITCARD', 'TRANSITCARD', 'PHONE']",[],GDL-076,500.0
75,79,(GDL-077) C. Argentina / C. Pedro Moreno,REGULAR,20.675631,-103.36134,1.0,(GDL-077) C. Argentina / C. Pedro Moreno,44160,15,"['KEY', 'CREDITCARD', 'TRANSITCARD', 'PHONE']",[],GDL-077,500.0
76,80,(GDL-078) C. Comercio / C. La Paz,REGULAR,20.667946,-103.346775,1.0,(GDL-078) C. Comercio / Av. La Paz,44100,15,"['KEY', 'CREDITCARD', 'TRANSITCARD', 'PHONE']",[],GDL-078,500.0
77,81,(GDL-079)  C. Donato Guerra /Av. La Paz,REGULAR,20.6688627,-103.35130221,0.0,(GDL-079) C. Donato Guerra /Av. La Paz *,44180,11,"['KEY', 'CREDITCARD', 'TRANSITCARD', 'PHONE']",[],GDL-079,500.0
78,82,(GDL-080) C. Manuel Acuña / Av. Américas,REGULAR,20.68432,-103.373252,0.0,(GDL-080) C. Manuel Acuña / Av. Américas *,44600,19,"['KEY', 'CREDITCARD', 'TRANSITCARD', 'PHONE']",[],GDL-080,500.0
79,83,(GDL-081) C. Venezuela / Av. Niños Héroes,REGULAR,20.667352,-103.363338,1.0,(GDL-081) C. Venezuela / Av. Niños Héroes,44160,11,"['KEY', 'CREDITCARD', 'TRANSITCARD', 'PHONE']",[],GDL-081,500.0
80,84,(GDL-082) C. Gpe. Montenegro/C.Nuño de Guzman,REGULAR,20.669326,-103.362535,0.0,(GDL-082) C. Gdpe. Montenegro/ C. Nuño de Guzman *,44160,15,"['KEY', 'CREDITCARD', 'TRANSITCARD', 'PHONE']",[],GDL-082,500.0
81,85,(GDL-083) C. Vidrio / Av. Enrique Díaz,REGULAR,20.667532,-103.3595222,0.0,(GDL-083) C. Vidrio / Av. Enrique Díaz de León *,44160,19,"['KEY', 'CREDITCARD', 'TRANSITCARD', 'PHONE']",[],GDL-083,500.0
82,86,(GDL-084) C. Montenegro / Av. Chapultepec,REGULAR,20.669306,-103.368312,1.0,(GDL-084) C. Montenegro / Av. Chapultepec,44160,23,"['KEY', 'CREDITCARD', 'TRANSITCARD', 'PHONE']",[],GDL-084,500.0
83,87,(GDL-085) C. Gdpe. Zuno/ Av.  Unión,REGULAR,20.670426,-103.373378,1.0,(GDL-085) C. Gdpe. Zuno/ Av.  Unión,44140,15,"['KEY', 'CREDITCARD', 'TRANSITCARD', 'PHONE']",[],GDL-085,500.0
84,88,(GDL-086) C. Simón Bolivar / Av. Niños Héroes,REGULAR,20.66704,-103.372444,0.0,(GDL-086) C. Simón Bolivar / Av. Niños Héroes*,44140,15,"['KEY', 'CREDITCARD', 'TRANSITCARD', 'PHONE']",[],GDL-086,500.0
85,91,(ZPN-001) Emilio Carranza /Carretera Tesistán,REGULAR,20.73244,-103.396083,1.0,(ZPN-001) C. Emilio Carranza / Carretera Tesistán *,45147,15,"['KEY', 'CREDITCARD', 'TRANSITCARD', 'PHONE']",[],ZPN-001,500.0
86,92,(ZPN-002) C. Emilio Carranza /C. Independenci,REGULAR,20.726376,-103.397466,1.0,(ZPN-002) C. Emilio Carranza /C. Independencia *,45147,11,"['KEY', 'CREDITCARD', 'TRANSITCARD', 'PHONE']",[],ZPN-002,500.0
87,93,(ZPN-003) C. Emilio Carranza / Av. Hidalgo,REGULAR,20.723081,-103.398071,0.0,(ZPN-003) C. Emilio Carranza / Av. Hidalgo *,45146,11,"['KEY', 'CREDITCARD', 'TRANSITCARD', 'PHONE']",[],ZPN-003,500.0
88,95,(ZPN-005) C. Del Corral / C. Anáhuac,REGULAR,20.730841,-103.394267,0.0,(ZPN-005) C. Del Corral / C. Anáhuac *,45140,11,"['KEY', 'CREDITCARD', 'TRANSITCARD', 'PHONE']",[],ZPN-005,500.0
89,96,(ZPN-006) C. Independencia / C. Anáhuac,REGULAR,20.725815,-103.395308,0.0,(ZPN-006) C. Independencia / C. Anáhuac *,45100,15,"['KEY', 'CREDITCARD', 'TRANSITCARD', 'PHONE']",[],ZPN-006,500.0
90,98,(ZPN-008) C. Vicente Guerrero / Av. Hidalgo,REGULAR,20.72201,-103.39427,0.0,(ZPN-008) C. Vicente Guerrero / Av. Hidalgo *,45100,19,"['KEY', 'CREDITCARD', 'TRANSITCARD', 'PHONE']",[],ZPN-008,500.0
91,100,(ZPN-010) C. Ramón Corona / C. Cuauhtémoc,REGULAR,20.723889,-103.394585,0.0,(ZPN-010) C. Ramón Corona / C. Cuauhtémoc *,45100,11,"['KEY', 'CREDITCARD', 'TRANSITCARD', 'PHONE']",[],ZPN-010,500.0
92,101,(ZPN-011) C. Pino Suárez / C. López Cotilla,REGULAR,20.726558,-103.389242,0.0,(ZPN-011) C. Pino Suárez / C. López Cotilla *,45100,11,"['KEY', 'CREDITCARD', 'TRANSITCARD', 'PHONE']",[],ZPN-011,500.0
93,102,(ZPN-012) C. Pino Suárez / C. Jesús García,REGULAR,20.728538,-103.390297,0.0,(ZPN-012) C. Pino Suárez / C. Jesús García*,45100,19,"['KEY', 'CREDITCARD', 'TRANSITCARD', 'PHONE']",[],ZPN-012,500.0
94,103,(ZPN-013) C. Eva Briseño / C. Javier Mina,REGULAR,20.720438,-103.391894,0.0,(ZPN-013) C. Eva Briseño / C. Javier Mina*,45100,15,"['KEY', 'CREDITCARD', 'TRANSITCARD', 'PHONE']",[],ZPN-013,500.0
95,104,(ZPN-014) C. Juan Manuel / Pino Suárez,REGULAR,20.724044,-103.390802,0.0,(ZPN-014) C. Juan Manuel / C. Pino Suárez *,45100,11,"['KEY', 'CREDITCARD', 'TRANSITCARD', 'PHONE']",[],ZPN-014,500.0
96,105,(ZPN-015) C. Panteon / C. Sarcófago,REGULAR,20.724877,-103.387706,0.0,(ZPN-015) C. Panteón / C. Sarcófago *,45100,11,"['KEY', 'CREDITCARD', 'TRANSITCARD', 'PHONE']",[],ZPN-015,500.0
97,106,(ZPN-016) Av. Hidalgo/ C. Emiliano Zapata,REGULAR,20.721643,-103.3902,0.0,(ZPN-016) Av. Hidalgo / C. Emiliano Zapata*,45100,19,"['KEY', 'CREDITCARD', 'TRANSITCARD', 'PHONE']",[],ZPN-016,500.0
98,107,(ZPN-017) C. Juan Manuel / C. Pedro Moreno,REGULAR,20.72374,-103.388657,0.0,(ZPN-017) C. Juan Manuel / C. Pedro Moreno *,45100,15,"['KEY', 'CREDITCARD', 'TRANSITCARD', 'PHONE']",[],ZPN-017,500.0
99,108,(ZPN-018) Andador CISZ / Av. Juan Pablo II,REGULAR,20.727743,-103.385546,0.0,(ZPN-018) Andador CISZ / Av. Juan Pablo II*,45150,15,"['KEY', 'CREDITCARD', 'TRANSITCARD', 'PHONE']",[],ZPN-018,500.0
100,110,(ZPN-020) Av. Aurelio Ortega / Av. Laureles,REGULAR,20.721002,-103.386526,0.0,(ZPN-020) Av. Aurelio Ortega / Av. Laureles *,45150,15,"['KEY', 'CREDITCARD', 'TRANSITCARD', 'PHONE']",[],ZPN-020,500.0
101,111,(ZPN-021) Blvrd. Panamericano/ C.Santa Mónica,REGULAR,20.72832,-103.384156,0.0,(ZPN-021) Blvr. Panamericano / C. Santa Mónica *,45150,15,"['KEY', 'CREDITCARD', 'TRANSITCARD', 'PHONE']",[],ZPN-021,500.0
102,112,(ZPN-022) Av. Aurelio Ortega / C. Morelos,REGULAR,20.722427,-103.383,0.0,(ZPN-022) Av. Aurelio Ortega / C. Morelos*,45150,15,"['KEY', 'CREDITCARD', 'TRANSITCARD', 'PHONE']",[],ZPN-022,500.0
103,115,(ZPN-025) C. Jesus García / C. Lopez Cotilla,REGULAR,20.728116,-103.389028,0.0,(ZPN-025) C. Jesus García / C. Lopez Cotilla*,45100,15,"['KEY', 'CREDITCARD', 'TRANSITCARD', 'PHONE']",[],ZPN-025,500.0
104,117,(ZPN-027) C. 5 de Mayo / C. Noviembre,REGULAR,20.720452,-103.388629,0.0,(ZPN-027) C. 5 de Mayo / C. Noviembre *,45100,11,"['KEY', 'CREDITCARD', 'TRANSITCARD', 'PHONE']",[],ZPN-027,500.0
105,118,(ZPN-028) C. Ejido / C. Sabino Delgado,REGULAR,20.729724,-103.398598,0.0,(ZPN-028) C. Ejido / C. Sabino Delgado *,45147,11,"['KEY', 'CREDITCARD', 'TRANSITCARD', 'PHONE']",[],ZPN-028,500.0
106,119,(ZPN-029) C. La Villa / C. Cuauhtémoc,REGULAR,20.728147,-103.393858,0.0,(ZPN-029) C. La Villa / C. Cuauhtémoc *,45147,15,"['KEY', 'CREDITCARD', 'TRANSITCARD', 'PHONE']",[],ZPN-029,500.0
107,120,(ZPN-030) C. Francisco Sarabia / C. Libertad,REGULAR,20.727381,-103.399976,0.0,(ZPN-030) C. Francisco Sarabia / C. Libertad *,45147,15,"['KEY', 'CREDITCARD', 'TRANSITCARD', 'PHONE']",[],ZPN-030,500.0
108,125,(ZPN-031) C. Niño Obrero/Calz Lázaro Cárdenas,REGULAR,20.67342,-103.40945,1.0,(ZPN-031) C. Niño Obrero / Calz. Lázaro Cárdenas,45049,19,"['KEY', 'CREDITCARD', 'TRANSITCARD', 'PHONE']",[],ZPN-031,500.0
109,126,(ZPN-032) Calz Lázaro Cárdenas / Av San Fco,REGULAR,20.67195,-103.40641,1.0,(ZPN-032) Calz. Lázaro Cárdenas / Av. San Francisco,45049,19,"['KEY', 'CREDITCARD', 'TRANSITCARD', 'PHONE']",[],ZPN-032,500.0
110,127,(ZPN-033) Av Lázaro Cárdenas / Av San Ignacio,REGULAR,20.6707,-103.40458,0.0,(ZPN-033) Av. Lázaro Cárdenas / Av. San Ignacio *,45040,15,"['KEY', 'CREDITCARD', 'TRANSITCARD', 'PHONE']",[],ZPN-033,500.0
111,128,(ZPN-034) C. San Demetrio / C. Niño Obrero,REGULAR,20.66984,-103.40968,1.0,(ZPN-034) C. San Demetrio / C. Niño Obrero,45040,15,"['KEY', 'CREDITCARD', 'TRANSITCARD', 'PHONE']",[],ZPN-034,500.0
112,129,(ZPN-035) C. San Juan Bosco / Av. San Ignacio,REGULAR,20.66844,-103.40495,0.0,(ZPN-035) C. San Juan Bosco / Av. San Ignacio*,45040,11,"['KEY', 'CREDITCARD', 'TRANSITCARD', 'PHONE']",[],ZPN-035,500.0
113,130,(ZPN-036) C. Niño Obrero /C José María Robles,REGULAR,20.66731,-103.40953,1.0,(ZPN-036) C. Niño Obrero / C. José María Robles,45040,19,"['KEY', 'CREDITCARD', 'TRANSITCARD', 'PHONE']",[],ZPN-036,500.0
114,131,(ZPN-037) Av. San Ignacio / Av. Guadalupe,REGULAR,20.6668782,-103.4031329,1.0,(ZPN-037) Av. San Ignacio / Av. Guadalupe*,45040,11,"['KEY', 'CREDITCARD', 'TRANSITCARD', 'PHONE']",[],ZPN-037,500.0
115,132,(ZPN-038) C. Santa Rita / Av. Guadalupe,REGULAR,20.66581,-103.40662,0.0,(ZPN-038) C. Santa Rita / Av. Guadalupe *,45040,11,"['KEY', 'CREDITCARD', 'TRANSITCARD', 'PHONE']",[],ZPN-038,500.0
116,133,(ZPN-039) Av. Niño Obrero / C. Juan Diego,REGULAR,20.66312806,-103.4079076,1.0,(ZPN-039) Av. Niño Obrero / C. Juan Diego,45040,19,"['KEY', 'CREDITCARD', 'TRANSITCARD', 'PHONE']",[],ZPN-039,500.0
117,134,(ZPN-040) C. Santa María / C. Árbol,REGULAR,20.66033761,-103.4037559,0.0,(ZPN-040) C. Santa María / C. Árbol *,45046,15,"['KEY', 'CREDITCARD', 'TRANSITCARD', 'PHONE']",[],ZPN-040,500.0
118,135,(ZPN-041) C. 12 de Diciembre / C. Juan Diego,REGULAR,20.66463,-103.404,1.0,(ZPN-041) C. 12 de Diciembre / C. Juan Diego,45040,11,"['KEY', 'CREDITCARD', 'TRANSITCARD', 'PHONE']",[],ZPN-041,500.0
119,136,(ZPN-042) C. Tonatiuh / Av. Netzahualcóyotl,REGULAR,20.65925105,-103.4065612,1.0,(ZPN-042) C. Tonatiuh / Av. Netzahualcóyotl,45050,15,"['KEY', 'CREDITCARD', 'TRANSITCARD', 'PHONE']",[],ZPN-042,500.0
120,137,(ZPN-043) C. Ermita / C. Del Árbol,REGULAR,20.65938,-103.40195,1.0,(ZPN-043) C. Ermita / C. Del Árbol,45046,11,"['KEY', 'CREDITCARD', 'TRANSITCARD', 'PHONE']",[],ZPN-043,500.0
121,139,(ZPN-045) Av. Tizoc / C. Iztaccíhuatl,REGULAR,20.65701,-103.40464,1.0,(ZPN-045) Av. Tizoc / C. Iztaccíhuatl,45050,15,"['KEY', 'CREDITCARD', 'TRANSITCARD', 'PHONE']",[],ZPN-045,500.0
122,140,(ZPN-046) Av. Cubilete / Av. López Mateos,REGULAR,20.656866,-103.397725,1.0,(ZPN-046) Av. Cubilete / Av. López Mateos,44510,19,"['KEY', 'CREDITCARD', 'TRANSITCARD', 'PHONE']",[],ZPN-046,500.0
123,141,(ZPN-047) Av. Tizoc / Av. López Mateos,REGULAR,20.65381,-103.40134,1.0,(ZPN-047) Av. Tizoc / Av. López Mateos,45050,15,"['KEY', 'CREDITCARD', 'TRANSITCARD', 'PHONE']",[],ZPN-047,500.0
124,142,(TLQ-001) BlvrdGarcía Barragán/C. Río Tajo,REGULAR,20.64483,-103.31948,0.0,(TLQ-001) Blvr. García Barragán / C. Río Tajo,44840,19,"['KEY', 'CREDITCARD', 'TRANSITCARD', 'PHONE']",[],TLQ-001,500.0
125,143,(TLQ-002) C. Juárez / Av. Niños Héroes,REGULAR,20.6383352,-103.3163317,0.0,(TLQ-002) C. Juárez / Av. Niños Héroes,45500,15,"['KEY', 'CREDITCARD', 'TRANSITCARD', 'PHONE']",[],TLQ-002,500.0
126,144,(TLQ-003) C. Contreras Medellín/Donato Guerra,REGULAR,20.64193,-103.31366,0.0,(TLQ-003) C. Contreras Medellín / C. Donato Guerra *,45500,15,"['KEY', 'CREDITCARD', 'TRANSITCARD', 'PHONE']",[],TLQ-003,500.0
127,145,(TLQ-004) C. Donato Guerra / C. Obregón,REGULAR,20.64185,-103.3106,0.0,(TLQ-004) C. Donato Guerra / C. Obregón*,45500,15,"['KEY', 'CREDITCARD', 'TRANSITCARD', 'PHONE']",[],TLQ-004,500.0
128,146,(TLQ-005) C. Zalatitán / C. Jalisco,REGULAR,20.64188,-103.30651,0.0,(TLQ-005) C. Zalatitán / C. Jalisco *,45500,15,"['KEY', 'CREDITCARD', 'TRANSITCARD', 'PHONE']",[],TLQ-005,500.0
129,148,(TLQ-007) Blvrd.García Barragán/Donato Guerra,REGULAR,20.64176,-103.31716,1.0,(TLQ-007) Blvr. García Barragán / C. Donato Guerra,45500,15,"['KEY', 'CREDITCARD', 'TRANSITCARD', 'PHONE']",[],TLQ-007,500.0
130,150,(TLQ-009) C. Progreso / C. Juárez,REGULAR,20.63816,-103.31148,1.0,(TLQ-009) C. Progreso / C. Juárez,45500,15,"['KEY', 'CREDITCARD', 'TRANSITCARD', 'PHONE']",[],TLQ-009,500.0
131,151,(TLQ-010) C. Zaragoza / C. Emilio Carranza,REGULAR,20.63834,-103.30952,0.0,(TLQ-010) C. Zaragoza / C. Emilio Carranza *,45500,15,"['KEY', 'CREDITCARD', 'TRANSITCARD', 'PHONE']",[],TLQ-010,500.0
132,152,(TLQ-011) C. Jalisco / C. Hidalgo,REGULAR,20.63922,-103.30465,0.0,(TLQ-011) C. Jalisco / C. Hidalgo*,45500,15,"['KEY', 'CREDITCARD', 'TRANSITCARD', 'PHONE']",[],TLQ-011,500.0
133,153,(TLQ-012) C. Paseo Don Bosco / C. Tonalá,REGULAR,20.63613,-103.3019,0.0,(TLQ-012) C. Paseo Don Bosco / C. Tonalá *,45500,15,"['KEY', 'CREDITCARD', 'TRANSITCARD', 'PHONE']",[],TLQ-012,500.0
134,154,(GDL-087) Av. Américas / Av. López Mateos,REGULAR,20.69493,-103.37333,1.0,(GDL-087) Av. Américas / Av. López Mateos,44648,15,"['KEY', 'CREDITCARD', 'TRANSITCARD', 'PHONE']",[],GDL-087,500.0
135,155,(GDL-088) Av.Plan de San Luis/C. Andrés Teran,REGULAR,20.6972,-103.36773,0.0,(GDL-088) Av. Plan de San Luis / C. Andrés Terán *,44610,15,"['KEY', 'CREDITCARD', 'TRANSITCARD', 'PHONE']",[],GDL-088,500.0
136,156,(GDL-089) C. Juan Álvarez / C. Cruz Verde,REGULAR,20.68456,-103.35699,1.0,(GDL-089) C. Juan Álvarez / C. Cruz Verde,44200,15,"['KEY', 'CREDITCARD', 'TRANSITCARD', 'PHONE']",[],GDL-089,500.0
137,157,(GDL-090) Calz. Federalismo / C. Durango,REGULAR,20.69865,-103.35519,0.0,(GDL-090) Calz. Federalismo / C. Durango*,44260,19,"['KEY', 'CREDITCARD', 'TRANSITCARD', 'PHONE']",[],GDL-090,500.0
138,158,(GDL-091) C. Magisterio /Av. M. Ávila Camacho,REGULAR,20.696097,-103.349382,1.0,(GDL-091) C. Magisterio / Av. M. Ávila Camacho,44266,19,"['KEY', 'CREDITCARD', 'TRANSITCARD', 'PHONE']",[],GDL-091,500.0
139,159,(GDL-092) Calz Federalismo / Av Plan San Luis,REGULAR,20.69610588,-103.3549492,0.0,(GDL-092) Calz. Federalismo / Av. Plan San Luis *,44260,15,"['KEY', 'CREDITCARD', 'TRANSITCARD', 'PHONE']",[],GDL-092,500.0
140,160,(GDL-093) C. H Colegio Militar / Av. Américas,REGULAR,20.69311,-103.37298,1.0,(GDL-093) C. H. Colegio Militar / Av. Américas,44620,15,"['KEY', 'CREDITCARD', 'TRANSITCARD', 'PHONE']",[],GDL-093,500.0
141,161,(GDL-094) C. Manuel Cambre / C. Andrés Teran,REGULAR,20.69324,-103.36757,0.0,(GDL-094) C. Manuel Cambre / C. Andrés Terán *,44600,15,"['KEY', 'CREDITCARD', 'TRANSITCARD', 'PHONE']",[],GDL-094,500.0
142,162,(GDL-095)  C. Mariano Bárcena / Maestros,REGULAR,20.692725,-103.3516,1.0,(GDL-095) C. Mariano Bárcena / Av. de los Maestros,44200,19,"['KEY', 'CREDITCARD', 'TRANSITCARD', 'PHONE']",[],GDL-095,500.0
143,163,(GDL-096) C. Jesús García / C. González Orte,REGULAR,20.6891,-103.35071,1.0,(GDL-096) C. Jesús García / C. González Ortega,44200,19,"['KEY', 'CREDITCARD', 'TRANSITCARD', 'PHONE']",[],GDL-096,500.0
144,164,(GDL-097) C. María Vigil / C. Juan N Cumplido,REGULAR,20.68981,-103.3582,0.0,(GDL-097) C. María Vigil / C. Juan N. Cumplido *,44260,19,"['KEY', 'CREDITCARD', 'TRANSITCARD', 'PHONE']",[],GDL-097,500.0
145,165,(GDL-098) Calz. Federalismo / Av. Maestros,REGULAR,20.693072,-103.354209,0.0,(GDL-098) Calz. Federalismo / Av. de los Maestros*,44200,23,"['KEY', 'CREDITCARD', 'TRANSITCARD', 'PHONE']",[],GDL-098,500.0
146,166,(GDL-099) C. Eulogio Parra /C.González Ortega,REGULAR,20.687196,-103.350525,0.0,(GDL-099) C. Gral. Eulogio Parra / C. González Ortega *,44100,11,"['KEY', 'CREDITCARD', 'TRANSITCARD', 'PHONE']",[],GDL-099,500.0
147,167,(GDL-100) C. Ayuntamiento/C. A. R. Plasencia,REGULAR,20.69269,-103.37082,0.0,(GDL-100) C. Ayuntamiento / C. Alfredo R. Plasencia *,44620,15,"['KEY', 'CREDITCARD', 'TRANSITCARD', 'PHONE']",[],GDL-100,500.0
148,168,(GDL-101) C. Amado Nervo /C. José María Vigil,REGULAR,20.68969,-103.37486,1.0,(GDL-101) C. Amado Nervo / C. José María Vigil,44600,15,"['KEY', 'CREDITCARD', 'TRANSITCARD', 'PHONE']",[],GDL-101,500.0
149,169,(GDL-102) C. María Vigil/C. Manuel M. Dieguez,REGULAR,20.68985,-103.37071,1.0,(GDL-102) C. José María Vigil / C. Manuel M. Dieguez,44620,11,"['KEY', 'CREDITCARD', 'TRANSITCARD', 'PHONE']",[],GDL-102,500.0
150,170,(GDL-103) J. Clemente Orozco /C. Jesús García,REGULAR,20.68861,-103.365814,0.0,(GDL-103) C. J. Clemente Orozco / C. Jesús García *,44600,15,"['KEY', 'CREDITCARD', 'TRANSITCARD', 'PHONE']",[],GDL-103,500.0
151,171,(GDL-104) C. Pedro Loza / Av. Manuel Acuña,REGULAR,20.68348,-103.34853,0.0,(GDL-104) C. Pedro Loza / Av. Manuel Acuña*,44100,19,"['KEY', 'CREDITCARD', 'TRANSITCARD', 'PHONE']",[],GDL-104,500.0
152,172,(GDL-105) C. Pino Suárez / C. Joaquin Angulo,REGULAR,20.6822,-103.34601,0.0,(GDL-105) C. Pino Suárez / C. Joaquín Angulo*,44280,15,"['KEY', 'CREDITCARD', 'TRANSITCARD', 'PHONE']",[],GDL-105,500.0
153,173,(GDL-106) C. Juan Álvarez / C. Belén,REGULAR,20.68465,-103.34526,0.0,(GDL-106) C. Juan Álvarez / C. Belén*,44280,23,"['KEY', 'CREDITCARD', 'TRANSITCARD', 'PHONE']",[],GDL-106,500.0
154,174,(GDL-107) Calz. Federalismo/C. J. María Vigil,REGULAR,20.68981,-103.353973,0.0,(GDL-107) Calz. Federalismo / C. José María Vigil *,44200,15,"['KEY', 'CREDITCARD', 'TRANSITCARD', 'PHONE']",[],GDL-107,500.0
155,175,(GDL-108) C. Hospital / C. Alameda,REGULAR,20.68586,-103.33964,0.0,(GDL-108) C. Hospital / C. Alameda *,44280,11,"['KEY', 'CREDITCARD', 'TRANSITCARD', 'PHONE']",[],GDL-108,500.0
156,176,(GDL-109) C. Eulogio Parra / Av. Américas,REGULAR,20.68725,-103.37363,1.0,(GDL-109) C. Eulogio Parra / Av. Américas,44200,19,"['KEY', 'CREDITCARD', 'TRANSITCARD', 'PHONE']",[],GDL-109,500.0
157,177,(GDL-110) C. Manuel Diéguez/Av. Eulogio Parra,REGULAR,20.68723,-103.37084,0.0,(GDL-110) C. Manuel Diéguez / C. Gral. Eulogio Parra *,44600,11,"['KEY', 'CREDITCARD', 'TRANSITCARD', 'PHONE']",[],GDL-110,500.0
158,178,(GDL-111) C. José Palomar / C. Hospital,REGULAR,20.686228,-103.336305,1.0,(GDL-111) C. José Palomar / C. Hospital,44280,15,"['KEY', 'CREDITCARD', 'TRANSITCARD', 'PHONE']",[],GDL-111,500.0
159,179,(GDL-112) C. C. Orozco/C. Gral. Eulogio Parra,REGULAR,20.687,-103.36582,0.0,(GDL-112) C. J. Clemente Orozco / C. Gral. Eulogio Parra *,44600,11,"['KEY', 'CREDITCARD', 'TRANSITCARD', 'PHONE']",[],GDL-112,500.0
160,180,(GDL-113) C. Ghilardi / C. Arista,REGULAR,20.6880337,-103.362716,0.0,(GDL-113) C. Ghilardi / C. Arista *,44600,15,"['KEY', 'CREDITCARD', 'TRANSITCARD', 'PHONE']",[],GDL-113,500.0
161,181,(GDL-114) C. Monte Cáucaso / C. Alameda,REGULAR,20.68925,-103.3361,0.0,(GDL-114) C. Monte Cáucaso / C. Alameda *,44280,15,"['KEY', 'CREDITCARD', 'TRANSITCARD', 'PHONE']",[],GDL-114,500.0
162,182,(GDL-115) Calz. Federalismo / C. Fco. Zarco,REGULAR,20.68605,-103.35408,0.0,(GDL-115) Calz. Federalismo / C. Fco. Zarco*,44200,15,"['KEY', 'CREDITCARD', 'TRANSITCARD', 'PHONE']",[],GDL-115,500.0
163,183,(GDL-116) Av Manuel Acuña/C. Pablo Villaseñor,REGULAR,20.68447,-103.37989,1.0,(GDL-116) Av. Manuel Acuña / C. Pablo Villaseñor,44600,11,"['KEY', 'CREDITCARD', 'TRANSITCARD', 'PHONE']",[],GDL-116,500.0
164,184,(GDL-117) Av Manuel Acuña / C Fray Fco Frejes,REGULAR,20.68427,-103.37653,0.0,(GDL-117) Av. Manuel Acuña / C. Fray Fco. Frejes*,44600,11,"['KEY', 'CREDITCARD', 'TRANSITCARD', 'PHONE']",[],GDL-117,500.0
165,185,(GDL-118) C. Antonio de León / C. Garibaldi,REGULAR,20.68168,-103.38197,0.0,(GDL-118) C. Antonio de León / C. Garibaldi*,44600,15,"['KEY', 'CREDITCARD', 'TRANSITCARD', 'PHONE']",[],GDL-118,500.0
166,186,(GDL-119) C. Fco Rojas González /C. Garibaldi,REGULAR,20.68153,-103.3785,0.0,(GDL-119) C. Fco. Rojas González / C. Garibaldi *,44600,11,"['KEY', 'CREDITCARD', 'TRANSITCARD', 'PHONE']",[],GDL-119,500.0
167,187,(GDL-120) C. Agustín de la Rosa /C. Garibaldi,REGULAR,20.68132,-103.37537,0.0,(GDL-120) C. Agustín de la Rosa / C. Garibaldi *,44600,11,"['KEY', 'CREDITCARD', 'TRANSITCARD', 'PHONE']",[],GDL-120,500.0
168,188,(GDL-121) C. Tomás V. Gómez / Av. México,REGULAR,20.67914,-103.38253,1.0,(GDL-121) C. Tomás V. Gómez / Av. México,44130,19,"['KEY', 'CREDITCARD', 'TRANSITCARD', 'PHONE']",[],GDL-121,500.0
169,189,(GDL-122) C. Fray Luis DePalacio/ Av. México,REGULAR,20.67947,-103.37926,0.0,(GDL-122) C. Fray Luis DePalacio/ Av. México*,44600,15,"['KEY', 'CREDITCARD', 'TRANSITCARD', 'PHONE']",[],GDL-122,500.0
170,190,(GDL-123) C. Aurelio L. Gallardo / Av. México,REGULAR,20.67945,-103.376,1.0,(GDL-123) C. Aurelio L. Gallardo / Av. México,44600,11,"['KEY', 'CREDITCARD', 'TRANSITCARD', 'PHONE']",[],GDL-123,500.0
171,191,(GDL-124) C. Severo Díaz / C. Justo Sierra,REGULAR,20.677410000000002,-103.38387,1.0,(GDL-124) C. Severo Díaz / C. Justo Sierra,44130,15,"['KEY', 'CREDITCARD', 'TRANSITCARD', 'PHONE']",[],GDL-124,500.0
172,192,(GDL-125) C. Pablo Villaseñor / Av. Hidalgo,REGULAR,20.67691,-103.37993,1.0,(GDL-125) C. Pablo Villaseñor / Av. Hidalgo,44130,15,"['KEY', 'CREDITCARD', 'TRANSITCARD', 'PHONE']",[],GDL-125,500.0
173,193,(GDL-126) C. Aurelio L. Gallardo / Av Hidalgo,REGULAR,20.67647,-103.37606,1.0,(GDL-126) C. Aurelio L. Gallardo / Av. Hidalgo,44600,11,"['KEY', 'CREDITCARD', 'TRANSITCARD', 'PHONE']",[],GDL-126,500.0
174,194,(GDL-127) Av. Vallarta / Av. de Los Arcos,REGULAR,20.67438,-103.38488,1.0,(GDL-127) Av. Vallarta / Av. de Los Arcos,44690,19,"['KEY', 'CREDITCARD', 'TRANSITCARD', 'PHONE']",[],GDL-127,500.0
175,195,(GDL-128) Av. Morelos / C. Emilio Castelar,REGULAR,20.67554,-103.38409,1.0,(GDL-128) Av José María Morelos / C. Emilio Castelar,44130,23,"['KEY', 'CREDITCARD', 'TRANSITCARD', 'PHONE']",[],GDL-128,500.0
176,196,(GDL-129) C. Lope de Vega / Av. Vallarta,REGULAR,20.67455,-103.37998,1.0,(GDL-129) C. Lope de Vega / Av. Ignacio L. Vallarta,44130,23,"['KEY', 'CREDITCARD', 'TRANSITCARD', 'PHONE']",[],GDL-129,500.0
177,197,(GDL-130) C. J. Ruíz de Alarcón / Av Vallarta,REGULAR,20.67448,-103.37618,1.0,(GDL-130) C. J. Ruíz de Alarcón / Av. Vallarta,44160,15,"['KEY', 'CREDITCARD', 'TRANSITCARD', 'PHONE']",[],GDL-130,500.0
178,198,(GDL-131) C. Emilio Castelar / Av. La Paz,REGULAR,20.672060000000002,-103.384,1.0,(GDL-131) C. Emilio Castelar / Av. La Paz,44130,19,"['KEY', 'CREDITCARD', 'TRANSITCARD', 'PHONE']",[],GDL-131,500.0
179,199,(GDL-132) C. Lope de Vega / Av. La Paz,REGULAR,20.67207,-103.37997,1.0,(GDL-132) C. Lope de Vega / Av. La Paz,44130,15,"['KEY', 'CREDITCARD', 'TRANSITCARD', 'PHONE']",[],GDL-132,500.0
180,200,(GDL-133) C. J. Ruíz de Alarcón / Av. La Paz,REGULAR,20.67189,-103.37608,1.0,(GDL-133) C. J. Ruíz de Alarcón / Av. La Paz,44160,15,"['KEY', 'CREDITCARD', 'TRANSITCARD', 'PHONE']",[],GDL-133,500.0
181,201,(GDL-134) C. Agustín Yáñez / C. Fco Ugarte,REGULAR,20.67016,-103.38448,1.0,(GDL-134) C. Agustín Yáñez / C. Fco. Ugarte,44690,19,"['KEY', 'CREDITCARD', 'TRANSITCARD', 'PHONE']",[],GDL-134,500.0
182,202,(GDL-135) C. Victoriano Agüeros / Av. Unión,REGULAR,20.66868,-103.3731,0.0,(GDL-135) C. Victoriano Agüeros / Av. Unión*,44140,11,"['KEY', 'CREDITCARD', 'TRANSITCARD', 'PHONE']",[],GDL-135,500.0
183,203,(GDL-136) C. Lope de Vega/C. Efraín Glez Luna,REGULAR,20.66927,-103.37983,0.0,(GDL-136) C. Lope de Vega / C. Efraín Glez. Luna *,44130,19,"['KEY', 'CREDITCARD', 'TRANSITCARD', 'PHONE']",[],GDL-136,500.0
184,204,(GDL-137) C. Ruíz de Alarcón/C. Efraín G Luna,REGULAR,20.66957,-103.37623,1.0,(GDL-137) C. Ruíz de Alarcón / C. Efraín Glez. Luna,44150,11,"['KEY', 'CREDITCARD', 'TRANSITCARD', 'PHONE']",[],GDL-137,500.0
185,205,(GDL-138) C. de la Nebulosa / C. Placeres,REGULAR,20.66557,-103.39134,0.0,(GDL-138) C. de la Nebulosa / C. Placeres*,44520,15,"['KEY', 'CREDITCARD', 'TRANSITCARD', 'PHONE']",[],GDL-138,500.0
186,206,(GDL-139) C. Firmamento / Av. Niños Héroes,REGULAR,20.66667,-103.38863,0.0,(GDL-139) C. Firmamento / Av. Niños Héroes*,44520,15,"['KEY', 'CREDITCARD', 'TRANSITCARD', 'PHONE']",[],GDL-139,500.0
187,207,(GDL-140) C. Constelación / Av. de los Arcos,REGULAR,20.66816,-103.38488,0.0,(GDL-140) C. Constelación / Av. de los Arcos*,44520,15,"['KEY', 'CREDITCARD', 'TRANSITCARD', 'PHONE']",[],GDL-140,500.0
188,208,(GDL-141) C. Ruíz de Alarcón/C. Agustín Yáñez,REGULAR,20.66702,-103.37621,1.0,(GDL-141) C. Ruíz de Alarcón / C. Agustín Yáñez,44130,15,"['KEY', 'CREDITCARD', 'TRANSITCARD', 'PHONE']",[],GDL-141,500.0
189,209,(GDL-142) C. De la Nebulosa / C. Firmamento,REGULAR,20.6647,-103.38855,0.0,(GDL-142) C. De la Nebulosa / C. Firmamento*,44520,15,"['KEY', 'CREDITCARD', 'TRANSITCARD', 'PHONE']",[],GDL-142,500.0
190,210,(GDL-143) C. Eclipse / Av. de Los Arcos,REGULAR,20.6625,-103.38407,1.0,(GDL-143) C. Eclipse / Av. de Los Arcos,44520,23,"['KEY', 'CREDITCARD', 'TRANSITCARD', 'PHONE']",[],GDL-143,650.0
191,211,(GDL-144) C. Primo Feliciano / C. San Gabriel,REGULAR,20.669931,-103.394307,0.0,(GDL-144) C. Primo Feliciano / C. San Gabriel*,44500,11,"['KEY', 'CREDITCARD', 'TRANSITCARD', 'PHONE']",[],GDL-144,500.0
192,212,(GDL-145) C. San Miguel / Av. San Francisco,REGULAR,20.66736,-103.3947,1.0,(GDL-145) C. San Miguel / Av. San Francisco,44500,19,"['KEY', 'CREDITCARD', 'TRANSITCARD', 'PHONE']",[],GDL-145,500.0
193,213,(GDL-146) Av. Guadalupe / C. Boturini,REGULAR,20.6662882,-103.3988986,1.0,(GDL-146) Av. Guadalupe / C. Boturini,44500,11,"['KEY', 'CREDITCARD', 'TRANSITCARD', 'PHONE']",[],GDL-146,500.0
194,214,(GDL-147) Calz. Lázaro Cárdenas/Av. Guadalupe,REGULAR,20.66623,-103.39654,1.0,(GDL-147) Calz. Lázaro Cárdenas / Av. Guadalupe*,44500,15,"['KEY', 'CREDITCARD', 'TRANSITCARD', 'PHONE']",[],GDL-147,500.0
195,215,(GDL-148) C. San Rafael / Av. Tepeyac,REGULAR,20.66501,-103.39788,0.0,(GDL-148) C. San Rafael / Av. Tepeyac *,44500,15,"['KEY', 'CREDITCARD', 'TRANSITCARD', 'PHONE']",[],GDL-148,500.0
196,216,(GDL-149) Calz. Lázaro Cárdenas/López Mateos,REGULAR,20.66511,-103.39388,1.0,(GDL-149) Calz. Lázaro Cárdenas/ Av. López Mateos,44500,15,"['KEY', 'CREDITCARD', 'TRANSITCARD', 'PHONE']",[],GDL-149,500.0
197,217,(GDL-150) C. Asunción / Av. Chapalita,REGULAR,20.661387,-103.392533,0.0,(GDL-150) C. Asunción / Av. Chapalita*,44500,11,"['KEY', 'CREDITCARD', 'TRANSITCARD', 'PHONE']",[],GDL-150,500.0
198,218,(GDL-151) C. Capuchinas / Av. Chapalita,REGULAR,20.66,-103.39496,0.0,(GDL-151) C. Capuchinas / Av. Chapalita*,44500,15,"['KEY', 'CREDITCARD', 'TRANSITCARD', 'PHONE']",[],GDL-151,500.0
199,219,(GDL-152) Parque de las Estrellas/C. Orión,REGULAR,20.65931,-103.38884,1.0,(GDL-152) C. Parque de las Estrellas / C. Orión,44520,19,"['KEY', 'CREDITCARD', 'TRANSITCARD', 'PHONE']",[],GDL-152,500.0
200,220,(GDL-153) C. Crepúsculo / Av. Tonantzin,REGULAR,20.65846,-103.39092,1.0,(GDL-153) C. Crepúsculo / Av. Tonantzin,44520,11,"['KEY', 'CREDITCARD', 'TRANSITCARD', 'PHONE']",[],GDL-153,500.0
201,221,(GDL-154) C. Capuchinas / Av. Las Rosas,REGULAR,20.65761,-103.39363,1.0,(GDL-154) C. Capuchinas / Av. Las Rosas,44510,15,"['KEY', 'CREDITCARD', 'TRANSITCARD', 'PHONE']",[],GDL-154,500.0
202,222,(GDL-155) Parque de las Estrellas/Mariano Ote,REGULAR,20.65712973,-103.3883797,0.0,(GDL-155) Parque de las Estrellas / Av. Mariano Otero *,44520,19,"['KEY', 'CREDITCARD', 'TRANSITCARD', 'PHONE']",[],GDL-155,500.0
203,224,(GDL-157) C. Horizonte / Av. De las Rosas,REGULAR,20.655907,-103.391867,1.0,(GDL-157) C. Horizonte / Av. De las Rosas,44510,15,"['KEY', 'CREDITCARD', 'TRANSITCARD', 'PHONE']",[],GDL-157,500.0
204,225,(GDL-158) Av. Faro / Av. Las Rosas,REGULAR,20.65158,-103.38957,1.0,(GDL-158) Av. Faro / Av. Las Rosas,44550,15,"['KEY', 'CREDITCARD', 'TRANSITCARD', 'PHONE']",[],GDL-158,500.0
205,226,(GDL-159) C. Guadalupe Victoria /Del Ejercito,REGULAR,20.66468,-103.33357,0.0,(GDL-159) C. Guadalupe Victoria / C. Del Ejército *,44420,19,"['KEY', 'CREDITCARD', 'TRANSITCARD', 'PHONE']",[],GDL-159,500.0
206,227,(GDL-160) C.Silverio Garcia/Blvrd. García Ba,REGULAR,20.66114,-103.3315,0.0,(GDL-160) C. Silverio García / Blvr. García Barragán*,44420,11,"['KEY', 'CREDITCARD', 'TRANSITCARD', 'PHONE']",[],GDL-160,500.0
207,228,(GDL-161) C. Rio Usumacinta/Blvrd García Barr,REGULAR,20.65925,-103.33055,0.0,(GDL-161) C. Río Usumacinta / Blvr. García Barragán *,44430,19,"['KEY', 'CREDITCARD', 'TRANSITCARD', 'PHONE']",[],GDL-161,500.0
208,229,(GDL-162) C. Rio Tuxpan / C. Salvador Lopez C,REGULAR,20.65721,-103.33046,0.0,(GDL-162) C. Río Tuxpan / C. Salvador López Chávez*,44430,19,"['KEY', 'CREDITCARD', 'TRANSITCARD', 'PHONE']",[],GDL-162,500.0
209,230,(GDL-163) C. Corregidora / Blvrd. García B.,REGULAR,20.657817,-103.32898,0.0,(GDL-163) C. Corregidora / Blvr. García Barragán *,44420,15,"['KEY', 'CREDITCARD', 'TRANSITCARD', 'PHONE']",[],GDL-163,500.0
210,231,(GDL-164) Av. Olímpica /C. José Rolon,REGULAR,20.655,-103.32186,0.0,(GDL-164) Calz. Olímpica / C. José Rolón *,44430,15,"['KEY', 'CREDITCARD', 'TRANSITCARD', 'PHONE']",[],GDL-164,500.0
211,232,(GDL-165) C. Rio Panuco/ Blvrd. García B.,REGULAR,20.65251,-103.32553,1.0,(GDL-165) C. Río Panuco/  Blvr. García Barragán,44870,19,"['KEY', 'CREDITCARD', 'TRANSITCARD', 'PHONE']",[],GDL-165,500.0
212,233,(GDL-166) C. Rio Principal / Blvrd. García B.,REGULAR,20.65475,-103.32719,0.0,(GDL-166) C. Río Principal / Blvr. García Barragán *,44430,19,"['KEY', 'CREDITCARD', 'TRANSITCARD', 'PHONE']",[],GDL-166,500.0
213,234,(GDL-167) C. Rio San Juan de Dios/Blvrd. Garc,REGULAR,20.64962,-103.32356,0.0,(GDL-167) C. Río San Juan de Dios/ Blvr. García Barragán*,44870,15,"['KEY', 'CREDITCARD', 'TRANSITCARD', 'PHONE']",[],GDL-167,500.0
214,235,(GDL-168) Av. Rio Nilo / C. Ramón Pacheco,REGULAR,20.64874,-103.31939,0.0,(GDL-168) Av. Río Nilo / C. Ramón Pacheco *,44840,19,"['KEY', 'CREDITCARD', 'TRANSITCARD', 'PHONE']",[],GDL-168,500.0
215,236,(GDL-169) Blvrd. García Barragán/ C. Rio Zapo,REGULAR,20.64707,-103.32147,0.0,(GDL-169) Blvr. García Barragán / C. Río Zapotlanejo *,44870,19,"['KEY', 'CREDITCARD', 'TRANSITCARD', 'PHONE']",[],GDL-169,500.0
216,237,(GDL-170)  C. Relojeros/ C. Chamizal,REGULAR,20.64698,-103.30619,0.0,(GDL-170) C. Relojeros / C. Chamizal *,44860,15,"['KEY', 'CREDITCARD', 'TRANSITCARD', 'PHONE']",[],GDL-170,500.0
217,238,(GDL-171) C. Maquinistas / C. San Rafael,REGULAR,20.6461,-103.3102,0.0,(GDL-171) C. Maquinistas / C. San Rafael *,44860,19,"['KEY', 'CREDITCARD', 'TRANSITCARD', 'PHONE']",[],GDL-171,500.0
218,239,(GDL-172) C. Chamizal / Av. Rio Nilo,REGULAR,20.64434,-103.30678,0.0,(GDL-172) C. Chamizal / Av. Río Nilo *,44860,15,"['KEY', 'CREDITCARD', 'TRANSITCARD', 'PHONE']",[],GDL-172,500.0
219,240,(GDL-173) C. Caballerango / C. Caporales,REGULAR,20.64504,-103.30518000000001,0.0,(GDL-173) C. Caballerango / C. Caporales *,44860,19,"['KEY', 'CREDITCARD', 'TRANSITCARD', 'PHONE']",[],GDL-173,500.0
220,241,(GDL-174) C. Juan de Zumárraga / Av. Tepeyac,REGULAR,20.6641,-103.4003,1.0,(GDL-174) C. Juan de Zumárraga / Av. Tepeyac,44500,11,"['KEY', 'CREDITCARD', 'TRANSITCARD', 'PHONE']",[],GDL-174,500.0
221,242,(GDL-175) C. Ermita / C. San Uriel,REGULAR,20.66234072,-103.3981344,1.0,(GDL-175) C. Ermita / C. San Uriel,44500,11,"['KEY', 'CREDITCARD', 'TRANSITCARD', 'PHONE']",[],GDL-175,500.0
222,243,(GDL-176) C. San Bonifacio/ Paseo Benedictino,REGULAR,20.67276201,-103.3976249,0.0,(GDL-176) C. San Bonifacio / Paseo de los Benedictinos*,44500,11,"['KEY', 'CREDITCARD', 'TRANSITCARD', 'PHONE']",[],GDL-176,500.0
223,244,(GDL-177) C. Fray Fco Frejes / C. Fco Zarco,REGULAR,20.68669,-103.37657,0.0,(GDL-177) C. Fray Fco. Frejes / C. Fco. Zarco *,44600,15,"['KEY', 'CREDITCARD', 'TRANSITCARD', 'PHONE']",[],GDL-177,500.0
224,246,(GDL-178) Salvador Quevedo/López Portillo,REGULAR,20.684513,-103.33307,0.0,(GDL-178) C. Salvador Quevedo / C. López Portillo *,44360,15,"['KEY', 'CREDITCARD', 'TRANSITCARD', 'PHONE']",[],GDL-178,500.0
225,247,(GDL-179) C. Monte Cáucaso / C. Sierra Nevada,REGULAR,20.68795,-103.33343,0.0,(GDL-179) C. Monte Cáucaso / C. Sierra Nevada *,44340,23,"['KEY', 'CREDITCARD', 'TRANSITCARD', 'PHONE']",[],GDL-179,500.0
226,248,(GDL-180) C. Montes Pirineos/Salvador Quevedo,REGULAR,20.68692,-103.33467,0.0,(GDL-180) C. Montes Pirineos / C. Salvador Quevedo*,44340,11,"['KEY', 'CREDITCARD', 'TRANSITCARD', 'PHONE']",[],GDL-180,500.0
227,249,(GDL-181) C.Ignacio Rmrz / Av Plan de San Lui,REGULAR,20.69705,-103.36322,0.0,(GDL-181) C.Ignacio Ramírez / Av. Plan de San Luis*,44260,15,"['KEY', 'CREDITCARD', 'TRANSITCARD', 'PHONE']",[],GDL-181,500.0
228,251,(TLQ-006) C. Miguel Hidalgo / Calz. Revolució,REGULAR,20.639042,-103.301239,0.0,(TLQ-006) C. Miguel Hidalgo / Av. Francisco Silva Romero*,45500,15,"['KEY', 'CREDITCARD', 'TRANSITCARD', 'PHONE']",[],TLQ-006,500.0
229,253,(GDL-156) C. Duque de Rivas/ C. López Cotilla,REGULAR,20.6731682,-103.3826893,1.0,(GDL-156) C. Duque de Rivas / C. López Cotilla,44130,15,"['KEY', 'CREDITCARD', 'TRANSITCARD', 'PHONE']",[],GDL-156,500.0
230,254,(GDL-020) C. General Coronado / C.Juan Manuel,REGULAR,20.67848,-103.365103,1.0,(GDL-020) C. General Coronado / C. Juan Manuel,44100,15,"['KEY', 'CREDITCARD', 'TRANSITCARD', 'PHONE']",[],GDL-020,500.0
231,255,(GDL-182) C. General Coronado / C. Manuel Acu,REGULAR,20.6841645,-103.3648293,0.0,(GDL-182) C. General Coronado / C. Manuel Acuña*,44600,15,"['KEY', 'CREDITCARD', 'TRANSITCARD', 'PHONE']",[],GDL-182,500.0
232,256,(GDL-183) Calz. Independencia / Av. Niños Hér,REGULAR,20.6639862,-103.3480775,0.0,(GDL-183) Calz. Independencia / Av. Niños Héroes*,44180,19,"['KEY', 'CREDITCARD', 'TRANSITCARD', 'PHONE']",[],GDL-183,500.0
233,257,(GDL-184) Ingreso Cucei / Revolución,REGULAR,20.659581,-103.324147,1.0,(GDL-184) Ingreso Cucei / Revolución,44430,19,"['KEY', 'CREDITCARD', 'TRANSITCARD', 'PHONE']",[],GDL-184,500.0
234,258,(GDL-185) Dr. Silverio García /Av. Revolución,REGULAR,20.66318,-103.32942,1.0,(GDL-185) Dr. Silverio García /Av. Revolución,44400,23,"['KEY', 'CREDITCARD', 'TRANSITCARD', 'PHONE']",[],GDL-185,500.0
235,259,(GDL-186) C. Argentina / C. Francia,REGULAR,20.66429,-103.3628,1.0,(GDL-186) C. Argentina / C. Francia,44190,15,"['KEY', 'CREDITCARD', 'TRANSITCARD', 'PHONE']",[],GDL-186,500.0
236,260,(GDL-187) Av. 16 de Septiembre / C. Priscilia,REGULAR,20.67284,-103.34718,1.0,(GDL-187) Av. 16 de Septiembre / C. Prisciliano Sánchez,44100,15,"['KEY', 'CREDITCARD', 'TRANSITCARD', 'PHONE']",[],GDL-187,500.0
237,261,(GDL-188) Av. de la Presa / Av. Manuel A. Cam,REGULAR,20.70928,-103.37015,1.0,(GDL-188) Av. de la Presa / Av. Manuel A. Camacho,44210,15,"['KEY', 'CREDITCARD', 'TRANSITCARD', 'PHONE']",[],GDL-188,500.0
238,262,(GDL-189) C. 5 de Mayo/ Av. Revolución,REGULAR,20.6692,-103.34116,1.0,(GDL-189) C. 5 de Mayo/ Av. Revolución,44450,15,"['KEY', 'CREDITCARD', 'TRANSITCARD', 'PHONE']",[],GDL-189,500.0
239,263,(GDL-190) C. Anahuac / Av. Revolución,REGULAR,20.6708,-103.34385,1.0,(GDL-190) C. Anahuac / Av. Revolución,44360,31,"['KEY', 'CREDITCARD', 'TRANSITCARD', 'PHONE']",[],GDL-190,500.0
240,264,(GDL-191) Plaza de los Mariachis,REGULAR,20.6744,-103.34123,0.0,(GDL-191) Plaza de los Mariachis*,44360,23,"['KEY', 'CREDITCARD', 'TRANSITCARD', 'PHONE']",[],GDL-191,500.0
241,265,(GDL-192) Calle A1 / Av. Manuel A. Camacho,REGULAR,20.70656,-103.36564,0.0,(GDL-192) Calle A1 / Av. Manuel A. Camacho*,44210,15,"['KEY', 'CREDITCARD', 'TRANSITCARD', 'PHONE']",[],GDL-192,500.0
242,266,(GDL-193) C. Hawai / C. Nicolás Romero,REGULAR,20.70211,-103.35996,1.0,(GDL-193) C. Hawai / C. Nicolás Romero,44260,15,"['KEY', 'CREDITCARD', 'TRANSITCARD', 'PHONE']",[],GDL-193,500.0
243,267,(GDL-194) Av. Revolución / C. Manuel López Ve,REGULAR,20.65048,-103.30999,0.0,(GDL-194) Av. Revolución / C. Manuel López Velarde*,44860,15,"['KEY', 'CREDITCARD', 'TRANSITCARD', 'PHONE']",[],GDL-194,500.0
244,268,(GDL-195) C. Ramón Corona / Av. Juárez,REGULAR,20.67529,-103.34656,1.0,(GDL-195) C. Ramón Corona / Av. Juárez,44100,23,"['KEY', 'CREDITCARD', 'TRANSITCARD', 'PHONE']",[],GDL-195,500.0
245,269,(GDL-196) C. Esmeralda / C. Manuel Acuña,REGULAR,20.68361,-103.33756,1.0,(GDL-196) C. Esmeralda / C. Manuel Acuña,44280,23,"['KEY', 'CREDITCARD', 'TRANSITCARD', 'PHONE']",[],GDL-196,500.0
246,270,(GDL-197) Av. Río Nilo / Av. Revolución,REGULAR,20.64517,-103.30313,0.0,(GDL-197) Av. Río Nilo / Av. Revolución*,44860,15,"['KEY', 'CREDITCARD', 'TRANSITCARD', 'PHONE']",[],GDL-197,500.0
247,271,(GDL-198) Av. Alcalde / C. Hospital,REGULAR,20.68504,-103.34796,1.0,(GDL-198) Av. Alcalde / C. Hospital,44100,31,"['KEY', 'CREDITCARD', 'TRANSITCARD', 'PHONE']",[],GDL-198,500.0
248,272,(GDL-199) C. Jesús García/Av. Alcalde,REGULAR,20.6891,-103.34806,1.0,(GDL-199) C. Jesús García/Av. Alcalde,44270,15,"['KEY', 'CREDITCARD', 'TRANSITCARD', 'PHONE']",[],GDL-199,500.0
249,273,(GDL-200) Av. Alcalde /Av. Manuel A. Camacho,REGULAR,20.69406,-103.34824,1.0,(GDL-200) Av. Alcalde /Av. Manuel A. Camacho,44270,23,"['KEY', 'CREDITCARD', 'TRANSITCARD', 'PHONE']",[],GDL-200,500.0
250,274,(GDL-201) Av. de los Normalistas / C. M. Guti,REGULAR,20.69442,-103.34474,1.0,(GDL-201) Av. de los Normalistas / C. M. Gutiérrez Nájera,44270,15,"['KEY', 'CREDITCARD', 'TRANSITCARD', 'PHONE']",[],GDL-201,500.0
251,275,(GDL-202) C. Magisterio / C. Durango,REGULAR,20.69898,-103.34893,1.0,(GDL-202) C. Magisterio / C. Durango,44266,15,"['KEY', 'CREDITCARD', 'TRANSITCARD', 'PHONE']",[],GDL-202,500.0
252,276,(GDL-203) Av. Federalismo / C. Tamaulipas,REGULAR,20.70046,-103.35478,1.0,(GDL-203) Av. Federalismo / C. Tamaulipas,44280,23,"['KEY', 'CREDITCARD', 'TRANSITCARD', 'PHONE']",[],GDL-203,500.0
253,277,(GDL-204) C. España/ Av. Chapultepec,REGULAR,20.6651,-103.36807,1.0,(GDL-204) C. España/ Av. Chapultepec,44190,23,"['KEY', 'CREDITCARD', 'TRANSITCARD', 'PHONE']",[],GDL-204,500.0
254,278,(GDL-205) Av. Agustín Yáñez /C. Venezuela,REGULAR,20.66265,-103.36554,0.0,(GDL-205) Av. Agustín Yáñez /C. Venezuela*,44190,15,"['KEY', 'CREDITCARD', 'TRANSITCARD', 'PHONE']",[],GDL-205,500.0
255,279,(GDL-206) C. Suiza / Av. Enrique Díaz de león,REGULAR,20.66231,-103.36011,0.0,(GDL-206) C. Suiza / Av. Enrique Díaz de león*,44190,15,"['KEY', 'CREDITCARD', 'TRANSITCARD', 'PHONE']",[],GDL-206,500.0
256,280,(GDL-207) C. Lázaro Pérez / C. Escorza,REGULAR,20.66563,-103.35802,0.0,(GDL-207) C. Lázaro Pérez / C. Escorza,44190,15,"['KEY', 'CREDITCARD', 'TRANSITCARD', 'PHONE']",[],GDL-207,500.0
257,281,(GDL-208) Av. España / Av. Federalismo,REGULAR,20.66081,-103.35704,1.0,(GDL-208) Av. España / Av. Federalismo,44190,31,"['KEY', 'CREDITCARD', 'TRANSITCARD', 'PHONE']",[],GDL-208,500.0
258,282,(GDL-209) Calz. del Campesino / Calz. Indepen,REGULAR,20.6605183,-103.3503245,0.0,(GDL-209) Calz. del Campesino / Calz. Independencia*,44190,19,"['KEY', 'CREDITCARD', 'TRANSITCARD', 'PHONE']",[],GDL-209,500.0
259,283,(GDL-210) Av. Washington / Calz. Independenci,REGULAR,20.65775,-103.35132,0.0,(GDL-210) Av. Washington / Calz. Independencia*,44190,31,"['KEY', 'CREDITCARD', 'TRANSITCARD', 'PHONE']",[],GDL-210,500.0
260,284,(GDL-211) Av. Washington / C. Rusia,REGULAR,20.658830000000002,-103.35468,1.0,(GDL-211) Av. Washington / C. Rusia,44190,15,"['KEY', 'CREDITCARD', 'TRANSITCARD', 'PHONE']",[],GDL-211,500.0
261,285,(GDL-212) C. Nicolás Romero / C. Jaime Nunó,REGULAR,20.70047,-103.36158,0.0,(GDL-212) C. Nicolás Romero / C. Jaime Nunó*,44610,15,"['KEY', 'CREDITCARD', 'TRANSITCARD', 'PHONE']",[],GDL-212,500.0
262,286,(ZPN-023) Blvrd. de la Espuela / C. Silvano B,REGULAR,20.73231,-103.38763,0.0,(ZPN-023) Blvrd. de la Espuela / C. Silvano Barba*,45100,15,"['KEY', 'CREDITCARD', 'TRANSITCARD', 'PHONE']",[],ZPN-023,500.0
263,287,(ZPN-024) C. López Cotilla / C. del Estribo,REGULAR,20.73076,-103.38861,0.0,(ZPN-024) C. López Cotilla / C. del Estribo*,45100,15,"['KEY', 'CREDITCARD', 'TRANSITCARD', 'PHONE']",[],ZPN-024,500.0
264,288,(ZPN-048) Av. J. Parres Arias / Prol. López C,REGULAR,20.72958,-103.38859,0.0,(ZPN-048) Av. J. Parres Arias / Prol. López Cotilla*,45100,31,"['KEY', 'CREDITCARD', 'TRANSITCARD', 'PHONE']",[],ZPN-048,500.0
265,289,(ZPN-049) Ávila Camacho/ Lábaro Patrio,REGULAR,20.7178,-103.38338,0.0,(ZPN-049) Ávila Camacho/ Lábaro Patrio*,45150,15,"['KEY', 'CREDITCARD', 'TRANSITCARD', 'PHONE']",[],ZPN-049,500.0
266,290,(ZPN-050) C. el Mediero / Prol. Laureles,REGULAR,20.73432,-103.38427,0.0,(ZPN-050) C. el Mediero / Prol. Laureles*,45150,15,"['KEY', 'CREDITCARD', 'TRANSITCARD', 'PHONE']",[],ZPN-050,500.0
267,291,(ZPN-051) Av. Periférico G. Morín / Av. J. Pa,REGULAR,20.73837,-103.38057,1.0,(ZPN-051) Av. Periférico G. Morín / Av. J. Parres Arias,45150,31,"['KEY', 'CREDITCARD', 'TRANSITCARD', 'PHONE']",[],ZPN-051,500.0
268,292,(ZPN-052) C. del Pial / C. del Vigía,REGULAR,20.73245,-103.39291,0.0,(ZPN-052) C. del Pial / C. del Vigía*,45140,15,"['KEY', 'CREDITCARD', 'TRANSITCARD', 'PHONE']",[],ZPN-052,500.0
269,293,(ZPN-053) Prol. Laureles / Av. Periférico G.,REGULAR,20.73836,-103.38299,0.0,(ZPN-053) Prol. Laureles / Av. Periférico G. Morín*,45150,31,"['KEY', 'CREDITCARD', 'TRANSITCARD', 'PHONE']",[],ZPN-053,500.0
270,294,(ZPN-054) Av. J. Parres Arias / C. Ignacio Ja,REGULAR,20.73441,-103.38079,0.0,(ZPN-054) Av. J. Parres Arias / C. Ignacio Jacob*,45157,31,"['KEY', 'CREDITCARD', 'TRANSITCARD', 'PHONE']",[],ZPN-054,500.0
271,295,(ZPN-055) Prol. Laureles / Av. J. Parres Aria,REGULAR,20.73154,-103.38515,0.0,(ZPN-055) Prol. Laureles / Av. J. Parres Arias*,45150,15,"['KEY', 'CREDITCARD', 'TRANSITCARD', 'PHONE']",[],ZPN-055,500.0
272,296,(ZPN-056) Av. Manuel A. Camacho / C. San Jorg,REGULAR,20.71365,-103.37742,1.0,(ZPN-056) Av. Manuel A. Camacho / C. San Jorge,45160,15,"['KEY', 'CREDITCARD', 'TRANSITCARD', 'PHONE']",[],ZPN-056,500.0
273,302,(TLQ-008) C. Independencia / C. Allende,REGULAR,20.639187,-103.3086,1.0,(TLQ-008) C. Independencia / C. Allende,45500,15,"['KEY', 'CREDITCARD', 'TRANSITCARD', 'PHONE']",[],TLQ-008,0.0
